{"spkid": "20006489", "covariance": {"labels": ["e", "q", "tp", "node", "peri", "i", "A2"], "data": [["5.97162013773517E-18", "-1.459828972546596E-17", "2.058677107202588E-15", "-4.60288564163342E-14", "4.892173965655337E-14", "-1.313341571398467E-15", "2.304357004621559E-24"], ["-1.459828972546596E-17", "3.56963805098044E-17", "-4.99570748427619E-15", "1.128206986272875E-13", "-1.19851236939116E-13", "3.217570080986867E-15", "-5.538330614698182E-24"], ["2.058677107202588E-15", "-4.99570748427619E-15", "8.754441792934032E-13", "-1.350003389363046E-11", "1.468604314915707E-11", "-3.833149449941466E-13", "1.11008282897414E-21"], ["-4.60288564163342E-14", "1.128206986272875E-13", "-1.350003389363046E-11", "4.572669368560584E-10", "-4.766699748714026E-10", "1.359201486551957E-11", "-1.89397958088892E-20"], ["4.892173965655337E-14", "-1.19851236939116E-13", "1.468604314915707E-11", "-4.766699748714026E-10", "4.976899934682335E-10", "-1.414205480518238E-11", "2.039982363370157E-20"], ["-1.313341571398467E-15", "3.217570080986867E-15", "-3.833149449941466E-13", "1.359201486551957E-11", "-1.414205480518238E-11", "4.076825445737096E-13", "-5.861717849388141E-22"], ["2.304357004621559E-24", "-5.538330614698182E-24", "1.11008282897414E-21", "-1.89397958088892E-20", "2.039982363370157E-20", "-5.861717849388141E-22", "2.101197517423911E-30"]], "elements": [{"label": "e", "units": null, "title": "eccentricity", "value": ".6051896111299258", "sigma": 2.44368986120072e-09, "name": "e"}, {"units": "au", "title": "perihelion distance", "value": ".9883219389666283", "name": "q", "sigma": 5.97464480197814e-09, "label": "q"}, {"label": "tp", "sigma": 9.35651740389234e-07, "name": "tp", "units": "TDB", "value": "2452808.242529467750", "title": "time of perihelion passage"}, {"name": "om", "sigma": 2.13838008047227e-05, "title": "longitude of the ascending node", "value": "211.1243017895301", "units": "deg", "label": "node"}, {"sigma": 2.23089666607002e-05, "name": "w", "units": "deg", "value": "66.56347298401046", "title": "argument of perihelion", "label": "peri"}, {"label": "i", "name": "i", "sigma": 6.38500230676317e-07, "title": "inclination", "value": "2.276154591271521", "units": "deg"}], "epoch": "2452413.5"}, "elements": [{"label": "e", "units": null, "value": ".6190939112625774", "title": "eccentricity", "sigma": "2.2744E-9", "name": "e"}, {"units": "au", "title": "semi-major axis", "value": "2.474378474226095", "sigma": "2.0763E-9", "name": "a", "label": "a"}, {"label": "q", "title": "perihelion distance", "value": ".9425058266735333", "units": "au", "sigma": "5.0625E-9", "name": "q"}, {"sigma": "6.0813E-7", "name": "i", "units": "deg", "title": "inclination; angle with respect to x-y ecliptic plane", "value": "2.260612192245343", "label": "i"}, {"label": "node", "units": "deg", "title": "longitude of the ascending node", "value": "208.5519487506632", "sigma": "2.2095E-5", "name": "om"}, {"label": "peri", "units": "deg", "value": "69.78033485126763", "title": "argument of perihelion", "sigma": "2.2972E-5", "name": "w"}, {"units": "deg", "title": "mean anomaly", "value": "302.9054901495539", "name": "ma", "sigma": "1.7214E-6", "label": "M"}, {"name": "tp", "sigma": "7.0817E-6", "units": "TDB", "value": "2461425.970365248993", "title": "time of perihelion passage", "label": "tp"}, {"units": "d", "title": "sidereal orbital period", "value": "1421.666140969651", "name": "per", "sigma": "1.7894E-6", "label": "period"}, {"sigma": "3.1872E-10", "name": "n", "title": "mean motion", "value": ".253224009227976", "units": "deg/d", "label": "n"}, {"sigma": "3.3617E-9", "name": "ad", "title": "aphelion distance", "value": "4.006251121778656", "units": "au", "label": "Q"}], "epoch": "2461200.5"}